JCSAT 2B                
1 41471U 16028A   17345.34924317 -.00000172  00000-0  00000+0 0  9997
2 41471   0.0169 339.1403 0002036 286.2828  94.5590  1.00271777  5903
